{"type": "FeatureCollection", "features": [ {"type": "Feature", "properties": {"norad_id": 66599, "name": "STARLINK-35930", "group": "last-30-days", "lat": 42.75383376330753, "lon": -72.11250539505491, "alt_km": 408.69043988108024, "timestamp": "2025-12-10T14:53:35.947092+00:00", "meta": {"OBJECT_NAME": "STARLINK-35930", "OBJECT_ID": "2025-270M", "EPOCH": "2025-12-10T06:00:02.000160", "MEAN_MOTION": 15.52650187, "ECCENTRICITY": 0.00015295, "INCLINATION": 42.9998, "RA_OF_ASC_NODE": 207.2489, "ARG_OF_PERICENTER": 257.8101, "MEAN_ANOMALY": 274.512, "EPHEMERIS_TYPE": 0, "CLASSIFICATION_TYPE": "U", "NORAD_CAT_ID": 66599, "ELEMENT_SET_NO": 999, "REV_AT_EPOCH": 400, "BSTAR": -0.038412466, "MEAN_MOTION_DOT": -0.02150639, "MEAN_MOTION_DDOT": 0}, "tle": {"line1": "1 66599U 25270M   25344.25002315 -.02150639  00000+0 -38412-1 0  9993", "line2": "2 66599  42.9998 207.2489 0001529 257.8101 274.5120 15.52650187  4006"}}, "geometry": {"type": "Point", "coordinates": [-72.11250539505491, 42.75383376330753]}}, {"type": "Feature", "properties": {"norad_id": 66600, "name": "STARLINK-35980", "group": "last-30-days", "lat": 42.88878467179799, "lon": -69.4920433704158, "alt_km": 408.52170861652576, "timestamp": "2025-12-10T14:53:35.947101+00:00", "meta": {"OBJECT_NAME": "STARLINK-35980", "OBJECT_ID": "2025-270N", "EPOCH": "2025-12-10T06:00:02.000160", "MEAN_MOTION": 15.52664646, "ECCENTRICITY": 0.00013409, "INCLINATION": 43, "RA_OF_ASC_NODE": 207.2441, "ARG_OF_PERICENTER": 258.5379, "MEAN_ANOMALY": 275.6983, "EPHEMERIS_TYPE": 0, "CLASSIFICATION_TYPE": "U", "NORAD_CAT_ID": 66600, "ELEMENT_SET_NO": 999, "REV_AT_EPOCH": 390, "BSTAR": -0.038585291, "MEAN_MOTION_DOT": -0.02160083, "MEAN_MOTION_DDOT": 0}, "tle": {"line1": "1 66600U 25270N   25344.25002315 -.02160083  00000+0 -38585-1 0  9991", "line2": "2 66600  43.0000 207.2441 0001340 258.5379 275.6983 15.52664646  3901"}}, "geometry": {"type": "Point", "coordinates": [-69.4920433704158, 42.88878467179799]}}, {"type": "Feature", "properties": {"norad_id": 66601, "name": "STARLINK-35978", "group": "last-30-days", "lat": 42.96295138845631, "lon": -66.87962011876, "alt_km": 408.55437249000715, "timestamp": "2025-12-10T14:53:35.947112+00:00", "meta": {"OBJECT_NAME": "STARLINK-35978", "OBJECT_ID": "2025-270P", "EPOCH": "2025-12-10T06:00:02.000160", "MEAN_MOTION": 15.52666097, "ECCENTRICITY": 0.00014156, "INCLINATION": 42.9999, "RA_OF_ASC_NODE": 207.2389, "ARG_OF_PERICENTER": 255.6513, "MEAN_ANOMALY": 280.5028, "EPHEMERIS_TYPE": 0, "CLASSIFICATION_TYPE": "U", "NORAD_CAT_ID": 66601, "ELEMENT_SET_NO": 999, "REV_AT_EPOCH": 384, "BSTAR": -0.038666928, "MEAN_MOTION_DOT": -0.02164279, "MEAN_MOTION_DDOT": 0}, "tle": {"line1": "1 66601U 25270P   25344.25002315 -.02164279  00000+0 -38667-1 0  9994", "line2": "2 66601  42.9999 207.2389 0001415 255.6513 280.5028 15.52666097  3849"}}, "geometry": {"type": "Point", "coordinates": [-66.87962011876, 42.96295138845631]}}, {"type": "Feature", "properties": {"norad_id": 66602, "name": "STARLINK-36050", "group": "last-30-days", "lat": 42.97742941006985, "lon": -64.2562744085401, "alt_km": 408.46576629451374, "timestamp": "2025-12-10T14:53:35.947121+00:00", "meta": {"OBJECT_NAME": "STARLINK-36050", "OBJECT_ID": "2025-270Q", "EPOCH": "2025-12-10T06:00:02.000160", "MEAN_MOTION": 15.52629683, "ECCENTRICITY": 0.00012635, "INCLINATION": 42.9999, "RA_OF_ASC_NODE": 207.2339, "ARG_OF_PERICENTER": 256.6191, "MEAN_ANOMALY": 281.4852, "EPHEMERIS_TYPE": 0, "CLASSIFICATION_TYPE": "U", "NORAD_CAT_ID": 66602, "ELEMENT_SET_NO": 999, "REV_AT_EPOCH": 390, "BSTAR": -0.03809147, "MEAN_MOTION_DOT": -0.02133113, "MEAN_MOTION_DDOT": 0}, "tle": {"line1": "1 66602U 25270Q   25344.25002315 -.02133113  00000+0 -38091-1 0  9999", "line2": "2 66602  42.9999 207.2339 0001263 256.6191 281.4852 15.52629683  3901"}}, "geometry": {"type": "Point", "coordinates": [-64.2562744085401, 42.97742941006985]}}, {"type": "Feature", "properties": {"norad_id": 66603, "name": "STARLINK-36048", "group": "last-30-days", "lat": 42.93220399609443, "lon": -61.64146145745455, "alt_km": 408.48235757998464, "timestamp": "2025-12-10T14:53:35.947130+00:00", "meta": {"OBJECT_NAME": "STARLINK-36048", "OBJECT_ID": "2025-270R", "EPOCH": "2025-12-10T06:00:02.000160", "MEAN_MOTION": 15.52698449, "ECCENTRICITY": 0.00013415, "INCLINATION": 43.0001, "RA_OF_ASC_NODE": 207.2294, "ARG_OF_PERICENTER": 248.3028, "MEAN_ANOMALY": 291.6773, "EPHEMERIS_TYPE": 0, "CLASSIFICATION_TYPE": "U", "NORAD_CAT_ID": 66603, "ELEMENT_SET_NO": 999, "REV_AT_EPOCH": 390, "BSTAR": -0.039627421, "MEAN_MOTION_DOT": -0.02213947, "MEAN_MOTION_DDOT": 0}, "tle": {"line1": "1 66603U 25270R   25344.25002315 -.02213947  00000+0 -39627-1 0  9990", "line2": "2 66603  43.0001 207.2294 0001341 248.3028 291.6773 15.52698449  3903"}}, "geometry": {"type": "Point", "coordinates": [-61.64146145745455, 42.93220399609443]}}, {"type": "Feature", "properties": {"norad_id": 66604, "name": "STARLINK-35977", "group": "last-30-days", "lat": 42.826976209987784, "lon": -59.03123234977695, "alt_km": 408.43921046728974, "timestamp": "2025-12-10T14:53:35.947141+00:00", "meta": {"OBJECT_NAME": "STARLINK-35977", "OBJECT_ID": "2025-270S", "EPOCH": "2025-12-10T06:00:02.000160", "MEAN_MOTION": 15.52698434, "ECCENTRICITY": 0.00012756, "INCLINATION": 43, "RA_OF_ASC_NODE": 207.2245, "ARG_OF_PERICENTER": 248.6657, "MEAN_ANOMALY": 293.2298, "EPHEMERIS_TYPE": 0, "CLASSIFICATION_TYPE": "U", "NORAD_CAT_ID": 66604, "ELEMENT_SET_NO": 999, "REV_AT_EPOCH": 400, "BSTAR": -0.039586837, "MEAN_MOTION_DOT": -0.022119, "MEAN_MOTION_DDOT": 0}, "tle": {"line1": "1 66604U 25270S   25344.25002315 -.02211900  00000+0 -39587-1 0  9993", "line2": "2 66604  43.0000 207.2245 0001275 248.6657 293.2298 15.52698434  4002"}}, "geometry": {"type": "Point", "coordinates": [-59.03123234977695, 42.826976209987784]}}, {"type": "Feature", "properties": {"norad_id": 66605, "name": "STARLINK-36052", "group": "last-30-days", "lat": 42.66248747476328, "lon": -56.433594044038394, "alt_km": 408.5029477171265, "timestamp": "2025-12-10T14:53:35.947150+00:00", "meta": {"OBJECT_NAME": "STARLINK-36052", "OBJECT_ID": "2025-270T", "EPOCH": "2025-12-10T06:00:02.000160", "MEAN_MOTION": 15.52669959, "ECCENTRICITY": 0.00013181, "INCLINATION": 42.9998, "RA_OF_ASC_NODE": 207.2198, "ARG_OF_PERICENTER": 256.2614, "MEAN_ANOMALY": 287.5596, "EPHEMERIS_TYPE": 0, "CLASSIFICATION_TYPE": "U", "NORAD_CAT_ID": 66605, "ELEMENT_SET_NO": 999, "REV_AT_EPOCH": 400, "BSTAR": -0.038757825, "MEAN_MOTION_DOT": -0.02168983, "MEAN_MOTION_DDOT": 0}, "tle": {"line1": "1 66605U 25270T   25344.25002315 -.02168983  00000+0 -38758-1 0  9995", "line2": "2 66605  42.9998 207.2198 0001318 256.2614 287.5596 15.52669959  4007"}}, "geometry": {"type": "Point", "coordinates": [-56.433594044038394, 42.66248747476328]}}, {"type": "Feature", "properties": {"norad_id": 66606, "name": "STARLINK-36063", "group": "last-30-days", "lat": 42.15850501954843, "lon": -51.28503438939416, "alt_km": 408.5188421204175, "timestamp": "2025-12-10T14:53:35.947159+00:00", "meta": {"OBJECT_NAME": "STARLINK-36063", "OBJECT_ID": "2025-270U", "EPOCH": "2025-12-10T06:00:02.000160", "MEAN_MOTION": 15.5270412, "ECCENTRICITY": 0.00013036, "INCLINATION": 43, "RA_OF_ASC_NODE": 207.21, "ARG_OF_PERICENTER": 248.6787, "MEAN_ANOMALY": 298.9686, "EPHEMERIS_TYPE": 0, "CLASSIFICATION_TYPE": "U", "NORAD_CAT_ID": 66606, "ELEMENT_SET_NO": 999, "REV_AT_EPOCH": 400, "BSTAR": -0.039787558, "MEAN_MOTION_DOT": -0.02222208, "MEAN_MOTION_DDOT": 0}, "tle": {"line1": "1 66606U 25270U   25344.25002315 -.02222208  00000+0 -39788-1 0  9991", "line2": "2 66606  43.0000 207.2100 0001303 248.6787 298.9686 15.52704120  4003"}}, "geometry": {"type": "Point", "coordinates": [-51.28503438939416, 42.15850501954843]}}, {"type": "Feature", "properties": {"norad_id": 66607, "name": "STARLINK-35993", "group": "last-30-days", "lat": 42.43983994326542, "lon": -53.85215479446712, "alt_km": 408.5231263427859, "timestamp": "2025-12-10T14:53:35.947167+00:00", "meta": {"OBJECT_NAME": "STARLINK-35993", "OBJECT_ID": "2025-270V", "EPOCH": "2025-12-10T06:00:02.000160", "MEAN_MOTION": 15.52667801, "ECCENTRICITY": 0.00013304, "INCLINATION": 43, "RA_OF_ASC_NODE": 207.215, "ARG_OF_PERICENTER": 255.2371, "MEAN_ANOMALY": 290.5016, "EPHEMERIS_TYPE": 0, "CLASSIFICATION_TYPE": "U", "NORAD_CAT_ID": 66607, "ELEMENT_SET_NO": 999, "REV_AT_EPOCH": 390, "BSTAR": -0.038704626, "MEAN_MOTION_DOT": -0.02166206, "MEAN_MOTION_DDOT": 0}, "tle": {"line1": "1 66607U 25270V   25344.25002315 -.02166206  00000+0 -38705-1 0  9995", "line2": "2 66607  43.0000 207.2150 0001330 255.2371 290.5016 15.52667801  3909"}}, "geometry": {"type": "Point", "coordinates": [-53.85215479446712, 42.43983994326542]}}, {"type": "Feature", "properties": {"norad_id": 66608, "name": "STARLINK-36036", "group": "last-30-days", "lat": 41.82084484909141, "lon": -48.74775980243353, "alt_km": 408.55737696015785, "timestamp": "2025-12-10T14:53:35.947176+00:00", "meta": {"OBJECT_NAME": "STARLINK-36036", "OBJECT_ID": "2025-270W", "EPOCH": "2025-12-10T06:00:02.000160", "MEAN_MOTION": 15.52706967, "ECCENTRICITY": 0.00012769, "INCLINATION": 42.9998, "RA_OF_ASC_NODE": 207.2056, "ARG_OF_PERICENTER": 250.8827, "MEAN_ANOMALY": 298.6779, "EPHEMERIS_TYPE": 0, "CLASSIFICATION_TYPE": "U", "NORAD_CAT_ID": 66608, "ELEMENT_SET_NO": 999, "REV_AT_EPOCH": 384, "BSTAR": -0.039821044, "MEAN_MOTION_DOT": -0.02224041, "MEAN_MOTION_DDOT": 0}, "tle": {"line1": "1 66608U 25270W   25344.25002315 -.02224041  00000+0 -39821-1 0  9998", "line2": "2 66608  42.9998 207.2056 0001276 250.8827 298.6779 15.52706967  3840"}}, "geometry": {"type": "Point", "coordinates": [-48.74775980243353, 41.82084484909141]}}]}